<?xml version="1.0" encoding="UTF-8"?>
<ndm xmlns:xsi="http://www.w3.org/2001/XMLSchema-instance" xsi:noNamespaceSchemaLocation="https://sanaregistry.org/r/ndmxml_unqualified/ndmxml-2.0.0-master-2.0.xsd">
<omm id="CCSDS_OMM_VERS" version="2.0">
<header><CREATION_DATE/><ORIGINATOR/></header><body><segment><metadata><OBJECT_NAME>KUIPER-00035</OBJECT_NAME><OBJECT_ID>2025-088AA</OBJECT_ID><CENTER_NAME>EARTH</CENTER_NAME><REF_FRAME>TEME</REF_FRAME><TIME_SYSTEM>UTC</TIME_SYSTEM><MEAN_ELEMENT_THEORY>SGP4</MEAN_ELEMENT_THEORY></metadata><data><meanElements><EPOCH>2025-12-20T11:52:39.408384</EPOCH><MEAN_MOTION>14.79929566</MEAN_MOTION><ECCENTRICITY>.00069134</ECCENTRICITY><INCLINATION>51.9015</INCLINATION><RA_OF_ASC_NODE>104.3126</RA_OF_ASC_NODE><ARG_OF_PERICENTER>166.9630</ARG_OF_PERICENTER><MEAN_ANOMALY>193.1512</MEAN_ANOMALY></meanElements><tleParameters><EPHEMERIS_TYPE>0</EPHEMERIS_TYPE><CLASSIFICATION_TYPE>U</CLASSIFICATION_TYPE><NORAD_CAT_ID>63748</NORAD_CAT_ID><ELEMENT_SET_NO>999</ELEMENT_SET_NO><REV_AT_EPOCH>3578</REV_AT_EPOCH><BSTAR>.32395835E-3</BSTAR><MEAN_MOTION_DOT>.2248E-4</MEAN_MOTION_DOT><MEAN_MOTION_DDOT>0</MEAN_MOTION_DDOT></tleParameters></data></segment></body></omm>
<omm id="CCSDS_OMM_VERS" version="2.0">
<header><CREATION_DATE/><ORIGINATOR/></header><body><segment><metadata><OBJECT_NAME>KUIPER-00037</OBJECT_NAME><OBJECT_ID>2025-088AB</OBJECT_ID><CENTER_NAME>EARTH</CENTER_NAME><REF_FRAME>TEME</REF_FRAME><TIME_SYSTEM>UTC</TIME_SYSTEM><MEAN_ELEMENT_THEORY>SGP4</MEAN_ELEMENT_THEORY></metadata><data><meanElements><EPOCH>2025-12-20T22:00:01.999584</EPOCH><MEAN_MOTION>14.80092713</MEAN_MOTION><ECCENTRICITY>.00004917</ECCENTRICITY><INCLINATION>51.8995</INCLINATION><RA_OF_ASC_NODE>101.4079</RA_OF_ASC_NODE><ARG_OF_PERICENTER>112.0156</ARG_OF_PERICENTER><MEAN_ANOMALY>320.6515</MEAN_ANOMALY></meanElements><tleParameters><EPHEMERIS_TYPE>0</EPHEMERIS_TYPE><CLASSIFICATION_TYPE>U</CLASSIFICATION_TYPE><NORAD_CAT_ID>63749</NORAD_CAT_ID><ELEMENT_SET_NO>999</ELEMENT_SET_NO><REV_AT_EPOCH>349</REV_AT_EPOCH><BSTAR>-.36777307E-2</BSTAR><MEAN_MOTION_DOT>-.28247E-3</MEAN_MOTION_DOT><MEAN_MOTION_DDOT>0</MEAN_MOTION_DDOT></tleParameters></data></segment></body></omm>
<omm id="CCSDS_OMM_VERS" version="2.0">
<header><CREATION_DATE/><ORIGINATOR/></header><body><segment><metadata><OBJECT_NAME>KUIPER-00038</OBJECT_NAME><OBJECT_ID>2025-088AC</OBJECT_ID><CENTER_NAME>EARTH</CENTER_NAME><REF_FRAME>TEME</REF_FRAME><TIME_SYSTEM>UTC</TIME_SYSTEM><MEAN_ELEMENT_THEORY>SGP4</MEAN_ELEMENT_THEORY></metadata><data><meanElements><EPOCH>2025-12-20T12:18:13.868928</EPOCH><MEAN_MOTION>14.79882793</MEAN_MOTION><ECCENTRICITY>.0007637</ECCENTRICITY><INCLINATION>51.9036</INCLINATION><RA_OF_ASC_NODE>88.1993</RA_OF_ASC_NODE><ARG_OF_PERICENTER>171.4873</ARG_OF_PERICENTER><MEAN_ANOMALY>188.6220</MEAN_ANOMALY></meanElements><tleParameters><EPHEMERIS_TYPE>0</EPHEMERIS_TYPE><CLASSIFICATION_TYPE>U</CLASSIFICATION_TYPE><NORAD_CAT_ID>63750</NORAD_CAT_ID><ELEMENT_SET_NO>999</ELEMENT_SET_NO><REV_AT_EPOCH>3579</REV_AT_EPOCH><BSTAR>.11563E-2</BSTAR><MEAN_MOTION_DOT>.8597E-4</MEAN_MOTION_DOT><MEAN_MOTION_DDOT>0</MEAN_MOTION_DDOT></tleParameters></data></segment></body></omm>
<omm id="CCSDS_OMM_VERS" version="2.0">
<header><CREATION_DATE/><ORIGINATOR/></header><body><segment><metadata><OBJECT_NAME>KUIPER-00039</OBJECT_NAME><OBJECT_ID>2025-134A</OBJECT_ID><CENTER_NAME>EARTH</CENTER_NAME><REF_FRAME>TEME</REF_FRAME><TIME_SYSTEM>UTC</TIME_SYSTEM><MEAN_ELEMENT_THEORY>SGP4</MEAN_ELEMENT_THEORY></metadata><data><meanElements><EPOCH>2025-12-20T19:45:05.346720</EPOCH><MEAN_MOTION>14.79943382</MEAN_MOTION><ECCENTRICITY>.00114846</ECCENTRICITY><INCLINATION>51.9006</INCLINATION><RA_OF_ASC_NODE>221.8325</RA_OF_ASC_NODE><ARG_OF_PERICENTER>30.4273</ARG_OF_PERICENTER><MEAN_ANOMALY>329.7354</MEAN_ANOMALY></meanElements><tleParameters><EPHEMERIS_TYPE>0</EPHEMERIS_TYPE><CLASSIFICATION_TYPE>U</CLASSIFICATION_TYPE><NORAD_CAT_ID>64500</NORAD_CAT_ID><ELEMENT_SET_NO>999</ELEMENT_SET_NO><REV_AT_EPOCH>2839</REV_AT_EPOCH><BSTAR>.3484516E-3</BSTAR><MEAN_MOTION_DOT>.2437E-4</MEAN_MOTION_DOT><MEAN_MOTION_DDOT>0</MEAN_MOTION_DDOT></tleParameters></data></segment></body></omm>
<omm id="CCSDS_OMM_VERS" version="2.0">
<header><CREATION_DATE/><ORIGINATOR/></header><body><segment><metadata><OBJECT_NAME>KUIPER-00040</OBJECT_NAME><OBJECT_ID>2025-134B</OBJECT_ID><CENTER_NAME>EARTH</CENTER_NAME><REF_FRAME>TEME</REF_FRAME><TIME_SYSTEM>UTC</TIME_SYSTEM><MEAN_ELEMENT_THEORY>SGP4</MEAN_ELEMENT_THEORY></metadata><data><meanElements><EPOCH>2025-12-20T21:04:17.601600</EPOCH><MEAN_MOTION>14.79851067</MEAN_MOTION><ECCENTRICITY>.00170312</ECCENTRICITY><INCLINATION>51.9000</INCLINATION><RA_OF_ASC_NODE>232.7419</RA_OF_ASC_NODE><ARG_OF_PERICENTER>9.5456</ARG_OF_PERICENTER><MEAN_ANOMALY>350.5827</MEAN_ANOMALY></meanElements><tleParameters><EPHEMERIS_TYPE>0</EPHEMERIS_TYPE><CLASSIFICATION_TYPE>U</CLASSIFICATION_TYPE><NORAD_CAT_ID>64501</NORAD_CAT_ID><ELEMENT_SET_NO>999</ELEMENT_SET_NO><REV_AT_EPOCH>2824</REV_AT_EPOCH><BSTAR>.43151256E-2</BSTAR><MEAN_MOTION_DOT>.32845E-3</MEAN_MOTION_DOT><MEAN_MOTION_DDOT>0</MEAN_MOTION_DDOT></tleParameters></data></segment></body></omm>
<omm id="CCSDS_OMM_VERS" version="2.0">
<header><CREATION_DATE/><ORIGINATOR/></header><body><segment><metadata><OBJECT_NAME>KUIPER-00041</OBJECT_NAME><OBJECT_ID>2025-134C</OBJECT_ID><CENTER_NAME>EARTH</CENTER_NAME><REF_FRAME>TEME</REF_FRAME><TIME_SYSTEM>UTC</TIME_SYSTEM><MEAN_ELEMENT_THEORY>SGP4</MEAN_ELEMENT_THEORY></metadata><data><meanElements><EPOCH>2025-12-20T22:40:08.566176</EPOCH><MEAN_MOTION>14.79795781</MEAN_MOTION><ECCENTRICITY>.0013872</ECCENTRICITY><INCLINATION>51.9001</INCLINATION><RA_OF_ASC_NODE>233.8033</RA_OF_ASC_NODE><ARG_OF_PERICENTER>7.9653</ARG_OF_PERICENTER><MEAN_ANOMALY>352.1527</MEAN_ANOMALY></meanElements><tleParameters><EPHEMERIS_TYPE>0</EPHEMERIS_TYPE><CLASSIFICATION_TYPE>U</CLASSIFICATION_TYPE><NORAD_CAT_ID>64502</NORAD_CAT_ID><ELEMENT_SET_NO>999</ELEMENT_SET_NO><REV_AT_EPOCH>2823</REV_AT_EPOCH><BSTAR>.19760355E-2</BSTAR><MEAN_MOTION_DOT>.14847E-3</MEAN_MOTION_DOT><MEAN_MOTION_DDOT>0</MEAN_MOTION_DDOT></tleParameters></data></segment></body></omm>
<omm id="CCSDS_OMM_VERS" version="2.0">
<header><CREATION_DATE/><ORIGINATOR/></header><body><segment><metadata><OBJECT_NAME>KUIPER-00042</OBJECT_NAME><OBJECT_ID>2025-134D</OBJECT_ID><CENTER_NAME>EARTH</CENTER_NAME><REF_FRAME>TEME</REF_FRAME><TIME_SYSTEM>UTC</TIME_SYSTEM><MEAN_ELEMENT_THEORY>SGP4</MEAN_ELEMENT_THEORY></metadata><data><meanElements><EPOCH>2025-12-20T22:45:29.837664</EPOCH><MEAN_MOTION>14.79938913</MEAN_MOTION><ECCENTRICITY>.00126461</ECCENTRICITY><INCLINATION>51.8992</INCLINATION><RA_OF_ASC_NODE>229.7950</RA_OF_ASC_NODE><ARG_OF_PERICENTER>21.1993</ARG_OF_PERICENTER><MEAN_ANOMALY>338.9491</MEAN_ANOMALY></meanElements><tleParameters><EPHEMERIS_TYPE>0</EPHEMERIS_TYPE><CLASSIFICATION_TYPE>U</CLASSIFICATION_TYPE><NORAD_CAT_ID>64503</NORAD_CAT_ID><ELEMENT_SET_NO>999</ELEMENT_SET_NO><REV_AT_EPOCH>2829</REV_AT_EPOCH><BSTAR>.15701255E-2</BSTAR><MEAN_MOTION_DOT>.11784E-3</MEAN_MOTION_DOT><MEAN_MOTION_DDOT>0</MEAN_MOTION_DDOT></tleParameters></data></segment></body></omm>
<omm id="CCSDS_OMM_VERS" version="2.0">
<header><CREATION_DATE/><ORIGINATOR/></header><body><segment><metadata><OBJECT_NAME>KUIPER-00043</OBJECT_NAME><OBJECT_ID>2025-134E</OBJECT_ID><CENTER_NAME>EARTH</CENTER_NAME><REF_FRAME>TEME</REF_FRAME><TIME_SYSTEM>UTC</TIME_SYSTEM><MEAN_ELEMENT_THEORY>SGP4</MEAN_ELEMENT_THEORY></metadata><data><meanElements><EPOCH>2025-12-20T21:19:52.243968</EPOCH><MEAN_MOTION>14.79888424</MEAN_MOTION><ECCENTRICITY>.00039052</ECCENTRICITY><INCLINATION>51.9013</INCLINATION><RA_OF_ASC_NODE>222.5004</RA_OF_ASC_NODE><ARG_OF_PERICENTER>47.7202</ARG_OF_PERICENTER><MEAN_ANOMALY>312.4091</MEAN_ANOMALY></meanElements><tleParameters><EPHEMERIS_TYPE>0</EPHEMERIS_TYPE><CLASSIFICATION_TYPE>U</CLASSIFICATION_TYPE><NORAD_CAT_ID>64504</NORAD_CAT_ID><ELEMENT_SET_NO>999</ELEMENT_SET_NO><REV_AT_EPOCH>2839</REV_AT_EPOCH><BSTAR>-.61106176E-3</BSTAR><MEAN_MOTION_DOT>-.4873E-4</MEAN_MOTION_DOT><MEAN_MOTION_DDOT>0</MEAN_MOTION_DDOT></tleParameters></data></segment></body></omm>

</ndm>
