KUIPER-00035            
1 63748U 25088AA  25354.49490056  .00002248  00000+0  32396-3 0  9998
2 63748  51.9015 104.3126 0006913 166.9630 193.1512 14.79929566 35781
KUIPER-00037            
1 63749U 25088AB  25354.91668981 -.00028247  00000+0 -36777-2 0  9995
2 63749  51.8995 101.4079 0000491 112.0156 320.6515 14.80092713  3493
KUIPER-00038            
1 63750U 25088AC  25354.51266052  .00008597  00000+0  11563-2 0  9996
2 63750  51.9036  88.1993 0007637 171.4873 188.6220 14.79882793 35798
KUIPER-00039            
1 64500U 25134A   25354.82297855  .00002437  00000+0  34845-3 0  9997
2 64500  51.9006 221.8325 0011484  30.4273 329.7354 14.79943382 28393
KUIPER-00040            
1 64501U 25134B   25354.87798150  .00032845  00000+0  43151-2 0  9992
2 64501  51.9000 232.7419 0017031   9.5456 350.5827 14.79851067 28246
KUIPER-00041            
1 64502U 25134C   25354.94454359  .00014847  00000+0  19760-2 0  9992
2 64502  51.9001 233.8033 0013872   7.9653 352.1527 14.79795781 28236
KUIPER-00042            
1 64503U 25134D   25354.94826201  .00011784  00000+0  15701-2 0  9990
2 64503  51.8992 229.7950 0012646  21.1993 338.9491 14.79938913 28294
KUIPER-00043            
1 64504U 25134E   25354.88879912 -.00004873  00000+0 -61106-3 0  9995
2 64504  51.9013 222.5004 0003905  47.7202 312.4091 14.79888424 28391
